[{"OBJECT_NAME":"STARLINK-11513 [DTC]","OBJECT_ID":"2025-008C","EPOCH":"2026-03-09T13:30:42.645312","MEAN_MOTION":15.71070543,"ECCENTRICITY":0.0002069,"INCLINATION":42.9992,"RA_OF_ASC_NODE":126.9885,"ARG_OF_PERICENTER":272.1862,"MEAN_ANOMALY":87.8769,"EPHEMERIS_TYPE":0,"CLASSIFICATION_TYPE":"U","NORAD_CAT_ID":62589,"ELEMENT_SET_NO":999,"REV_AT_EPOCH":6609,"BSTAR":0.0018421,"MEAN_MOTION_DOT":0.00245393,"MEAN_MOTION_DDOT":0},{"OBJECT_NAME":"COSMOS 921 DEB","OBJECT_ID":"1977-055C","EPOCH":"2026-03-09T22:42:10.805760","MEAN_MOTION":15.70063735,"ECCENTRICITY":0.00183564,"INCLINATION":75.8082,"RA_OF_ASC_NODE":161.9867,"ARG_OF_PERICENTER":333.9317,"MEAN_ANOMALY":26.0991,"EPHEMERIS_TYPE":0,"CLASSIFICATION_TYPE":"U","NORAD_CAT_ID":39690,"ELEMENT_SET_NO":999,"REV_AT_EPOCH":65481,"BSTAR":0.0010474937,"MEAN_MOTION_DOT":0.0012919,"MEAN_MOTION_DDOT":0}]
